start=new Date('2022-03-26T00:00:00.000Z').valueOf();
sats=[{"RA_OF_ASC_NODE":"93.9510","SEMIMAJOR_AXIS":"6925.364","MEAN_ELEMENT_THEORY":"SGP4","MEAN_MOTION_DDOT":"0.0000000000000","SITE":"AFETR","APOAPSIS":"548.718","LAUNCH_DATE":"2021-05-26","COUNTRY_CODE":"US","EPOCH":"2022-03-25T14:00:01.000224","GP_ID":"199663754","CENTER_NAME":"EARTH","FILE":"3373822","TLE_LINE2":"2 48694  53.0539  93.9510 0002150  44.0697 239.6375 15.06394800  3580","PERIOD":"95.592","DECAY_DATE":null,"ECCENTRICITY":"0.00021500","TLE_LINE1":"1 48694U 21044BJ  22084.58334491 -.00008445  00000-0 -54876-3 0  9991","MEAN_ANOMALY":"239.6375","TIME_SYSTEM":"UTC","BSTAR":"-0.00054876000000","INCLINATION":"53.0539","NORAD_CAT_ID":"48694","REV_AT_EPOCH":"358","PERIAPSIS":"545.741","OBJECT_TYPE":"PAYLOAD","OBJECT_NAME":"STARLINK-2748","MEAN_MOTION_DOT":"-0.00008445","CLASSIFICATION_TYPE":"U","RCS_SIZE":"LARGE","ELEMENT_SET_NO":"999","MEAN_MOTION":"15.06394800","REF_FRAME":"TEME","ARG_OF_PERICENTER":"44.0697","OBJECT_ID":"2021-044BJ","EPHEMERIS_TYPE":"0"},{"MEAN_MOTION":"15.06404251","EPHEMERIS_TYPE":"0","OBJECT_ID":"2021-044BK","ARG_OF_PERICENTER":"48.2326","REF_FRAME":"TEME","RCS_SIZE":"LARGE","ELEMENT_SET_NO":"999","OBJECT_TYPE":"PAYLOAD","CLASSIFICATION_TYPE":"U","MEAN_MOTION_DOT":"-0.00001430","OBJECT_NAME":"STARLINK-2616","BSTAR":"-0.00007708100000","PERIAPSIS":"545.938","REV_AT_EPOCH":"358","NORAD_CAT_ID":"48695","INCLINATION":"53.0537","ECCENTRICITY":"0.00018230","DECAY_DATE":null,"PERIOD":"95.592","TLE_LINE2":"2 48695  53.0537  93.9497 0001823  48.2326 140.4210 15.06404251  3583","TIME_SYSTEM":"UTC","MEAN_ANOMALY":"140.4210","TLE_LINE1":"1 48695U 21044BK  22084.58334491 -.00001430  00000-0 -77081-4 0  9993","CENTER_NAME":"EARTH","GP_ID":"199664505","EPOCH":"2022-03-25T14:00:01.000224","LAUNCH_DATE":"2021-05-26","COUNTRY_CODE":"US","FILE":"3373822","MEAN_MOTION_DDOT":"0.0000000000000","SITE":"AFETR","APOAPSIS":"548.463","RA_OF_ASC_NODE":"93.9497","SEMIMAJOR_AXIS":"6925.336","MEAN_ELEMENT_THEORY":"SGP4"},{"MEAN_ELEMENT_THEORY":"SGP4","SEMIMAJOR_AXIS":"6925.354","RA_OF_ASC_NODE":"98.2660","APOAPSIS":"548.530","SITE":"AFETR","MEAN_MOTION_DDOT":"0.0000000000000","FILE":"3374096","GP_ID":"199671605","COUNTRY_CODE":"US","LAUNCH_DATE":"2021-05-26","EPOCH":"2022-03-25T17:42:37.462176","CENTER_NAME":"EARTH","TLE_LINE1":"1 48696U 21044BL  22084.73793359  .00001153  00000-0  96312-4 0  9991","MEAN_ANOMALY":"310.4674","TIME_SYSTEM":"UTC","PERIOD":"95.592","TLE_LINE2":"2 48696  53.0544  98.2660 0001894  49.6480 310.4674 15.06398381 47189","ECCENTRICITY":"0.00018940","DECAY_DATE":null,"INCLINATION":"53.0544","PERIAPSIS":"545.907","REV_AT_EPOCH":"4718","NORAD_CAT_ID":"48696","BSTAR":"0.00009631200000","MEAN_MOTION_DOT":"0.00001153","CLASSIFICATION_TYPE":"U","OBJECT_NAME":"STARLINK-2753","OBJECT_TYPE":"PAYLOAD","ELEMENT_SET_NO":"999","RCS_SIZE":"LARGE","ARG_OF_PERICENTER":"49.6480","REF_FRAME":"TEME","EPHEMERIS_TYPE":"0","OBJECT_ID":"2021-044BL","MEAN_MOTION":"15.06398381"},{"CENTER_NAME":"EARTH","LAUNCH_DATE":"2021-05-26","EPOCH":"2022-03-25T07:21:37.443168","COUNTRY_CODE":"US","GP_ID":"199664005","FILE":"3373822","ECCENTRICITY":"0.00019350","DECAY_DATE":null,"TLE_LINE2":"2 48697  53.0562 100.2059 0001935  56.0782 304.0391 15.06394912 46279","PERIOD":"95.592","MEAN_ANOMALY":"304.0391","TIME_SYSTEM":"UTC","TLE_LINE1":"1 48697U 21044BM  22084.30668337  .00001206  00000-0  99893-4 0  9998","RA_OF_ASC_NODE":"100.2059","MEAN_ELEMENT_THEORY":"SGP4","SEMIMAJOR_AXIS":"6925.364","MEAN_MOTION_DDOT":"0.0000000000000","APOAPSIS":"548.569","SITE":"AFETR","RCS_SIZE":"LARGE","ELEMENT_SET_NO":"999","MEAN_MOTION":"15.06394912","OBJECT_ID":"2021-044BM","EPHEMERIS_TYPE":"0","ARG_OF_PERICENTER":"56.0782","REF_FRAME":"TEME","BSTAR":"0.00009989300000","NORAD_CAT_ID":"48697","REV_AT_EPOCH":"4627","PERIAPSIS":"545.889","INCLINATION":"53.0562","OBJECT_TYPE":"PAYLOAD","MEAN_MOTION_DOT":"0.00001206","CLASSIFICATION_TYPE":"U","OBJECT_NAME":"STARLINK-2715"},{"TLE_LINE2":"2 48879  97.5300 216.2742 0005032 185.8476 218.1029 15.15978161 41861","PERIOD":"94.988","DECAY_DATE":null,"ECCENTRICITY":"0.00050320","TLE_LINE1":"1 48879U 21059A   22084.91668981 -.00042274  00000-0 -22128-2 0  9995","MEAN_ANOMALY":"218.1029","TIME_SYSTEM":"UTC","LAUNCH_DATE":"2021-06-30","EPOCH":"2022-03-25T22:00:01.999584","COUNTRY_CODE":"US","GP_ID":"199667485","CENTER_NAME":"EARTH","FILE":"3373922","MEAN_MOTION_DDOT":"0.0000000000000","APOAPSIS":"521.483","SITE":"AFETR","RA_OF_ASC_NODE":"216.2742","MEAN_ELEMENT_THEORY":"SGP4","SEMIMAJOR_AXIS":"6896.148","MEAN_MOTION":"15.15978161","ARG_OF_PERICENTER":"185.8476","REF_FRAME":"TEME","EPHEMERIS_TYPE":"0","OBJECT_ID":"2021-059A","RCS_SIZE":"LARGE","ELEMENT_SET_NO":"999","OBJECT_TYPE":"PAYLOAD","OBJECT_NAME":"STARLINK-3003","MEAN_MOTION_DOT":"-0.00042274","CLASSIFICATION_TYPE":"U","BSTAR":"-0.00221280000000","INCLINATION":"97.5300","NORAD_CAT_ID":"48879","PERIAPSIS":"514.542","REV_AT_EPOCH":"4186"},{"BSTAR":"-0.00073576000000","REV_AT_EPOCH":"4186","PERIAPSIS":"514.295","NORAD_CAT_ID":"48880","INCLINATION":"97.5296","OBJECT_TYPE":"PAYLOAD","MEAN_MOTION_DOT":"-0.00014155","CLASSIFICATION_TYPE":"U","OBJECT_NAME":"STARLINK-3004","RCS_SIZE":"LARGE","ELEMENT_SET_NO":"999","MEAN_MOTION":"15.15978228","OBJECT_ID":"2021-059B","EPHEMERIS_TYPE":"0","ARG_OF_PERICENTER":"173.5391","REF_FRAME":"TEME","RA_OF_ASC_NODE":"216.2797","SEMIMAJOR_AXIS":"6896.147","MEAN_ELEMENT_THEORY":"SGP4","MEAN_MOTION_DDOT":"0.0000000000000","SITE":"AFETR","APOAPSIS":"521.730","CENTER_NAME":"EARTH","GP_ID":"199667702","EPOCH":"2022-03-25T22:00:01.999584","LAUNCH_DATE":"2021-06-30","COUNTRY_CODE":"US","FILE":"3373949","ECCENTRICITY":"0.00053910","DECAY_DATE":null,"PERIOD":"94.988","TLE_LINE2":"2 48880  97.5296 216.2797 0005391 173.5391 249.9261 15.15978228 41869","MEAN_ANOMALY":"249.9261","TIME_SYSTEM":"UTC","TLE_LINE1":"1 48880U 21059B   22084.91668981 -.00014155  00000-0 -73576-3 0  9998"},{"CLASSIFICATION_TYPE":"U","MEAN_MOTION_DOT":"-0.00013394","OBJECT_NAME":"STARLINK-3005","OBJECT_TYPE":"PAYLOAD","REV_AT_EPOCH":"4186","PERIAPSIS":"514.138","NORAD_CAT_ID":"48881","INCLINATION":"97.5301","BSTAR":"-0.00069575000000","EPHEMERIS_TYPE":"0","OBJECT_ID":"2021-059C","REF_FRAME":"TEME","ARG_OF_PERICENTER":"164.6868","MEAN_MOTION":"15.15987461","ELEMENT_SET_NO":"999","RCS_SIZE":"LARGE","SITE":"AFETR","APOAPSIS":"521.831","MEAN_MOTION_DDOT":"0.0000000000000","MEAN_ELEMENT_THEORY":"SGP4","SEMIMAJOR_AXIS":"6896.119","RA_OF_ASC_NODE":"216.2945","MEAN_ANOMALY":"250.8627","TIME_SYSTEM":"UTC","TLE_LINE1":"1 48881U 21059C   22084.91668981 -.00013394  00000-0 -69575-3 0  9997","ECCENTRICITY":"0.00055780","DECAY_DATE":null,"PERIOD":"94.988","TLE_LINE2":"2 48881  97.5301 216.2945 0005578 164.6868 250.8627 15.15987461 41865","FILE":"3373943","CENTER_NAME":"EARTH","GP_ID":"199667788","LAUNCH_DATE":"2021-06-30","COUNTRY_CODE":"US","EPOCH":"2022-03-25T22:00:01.999584"},{"BSTAR":"-0.00748400000000","PERIAPSIS":"386.608","REV_AT_EPOCH":"368","NORAD_CAT_ID":"49131","INCLINATION":"70.0000","OBJECT_TYPE":"PAYLOAD","MEAN_MOTION_DOT":"-0.00557894","OBJECT_NAME":"STARLINK-3096","CLASSIFICATION_TYPE":"U","RCS_SIZE":"LARGE","ELEMENT_SET_NO":"999","MEAN_MOTION":"15.59557656","EPHEMERIS_TYPE":"0","OBJECT_ID":"2021-082B","REF_FRAME":"TEME","ARG_OF_PERICENTER":"258.5284","RA_OF_ASC_NODE":"306.1053","MEAN_ELEMENT_THEORY":"SGP4","SEMIMAJOR_AXIS":"6767.073","MEAN_MOTION_DDOT":"0.0000000000000","SITE":"AFWTR","APOAPSIS":"391.269","CENTER_NAME":"EARTH","GP_ID":"199664554","LAUNCH_DATE":"2021-09-14","COUNTRY_CODE":"US","EPOCH":"2022-03-25T14:00:01.000224","FILE":"3373822","DECAY_DATE":null,"ECCENTRICITY":"0.00034440","PERIOD":"92.334","TLE_LINE2":"2 49131  70.0000 306.1053 0003444 258.5284 358.2807 15.59557656  3688","MEAN_ANOMALY":"358.2807","TIME_SYSTEM":"UTC","TLE_LINE1":"1 49131U 21082B   22084.58334491 -.00557894  00000-0 -74840-2 0  9999"},{"CLASSIFICATION_TYPE":"U","MEAN_MOTION_DOT":"0.00076658","OBJECT_NAME":"STARLINK-3090","OBJECT_TYPE":"PAYLOAD","NORAD_CAT_ID":"49132","PERIAPSIS":"569.883","REV_AT_EPOCH":"357","INCLINATION":"70.0017","BSTAR":"0.00636720000000","OBJECT_ID":"2021-082C","EPHEMERIS_TYPE":"0","ARG_OF_PERICENTER":"279.2616","REF_FRAME":"TEME","MEAN_MOTION":"14.98300298","ELEMENT_SET_NO":"999","RCS_SIZE":"LARGE","SITE":"AFWTR","APOAPSIS":"574.416","MEAN_MOTION_DDOT":"0.0000000000000","SEMIMAJOR_AXIS":"6950.285","MEAN_ELEMENT_THEORY":"SGP4","RA_OF_ASC_NODE":"338.0744","MEAN_ANOMALY":"134.4992","TIME_SYSTEM":"UTC","TLE_LINE1":"1 49132U 21082C   22084.58334491  .00076658  00000-0  63672-2 0  9993","ECCENTRICITY":"0.00032610","DECAY_DATE":null,"TLE_LINE2":"2 49132  70.0017 338.0744 0003261 279.2616 134.4992 14.98300298  3571","PERIOD":"96.109","FILE":"3373822","CENTER_NAME":"EARTH","COUNTRY_CODE":"US","LAUNCH_DATE":"2021-09-14","EPOCH":"2022-03-25T14:00:01.000224","GP_ID":"199665305"},{"OBJECT_ID":"2021-082D","EPHEMERIS_TYPE":"0","REF_FRAME":"TEME","ARG_OF_PERICENTER":"275.3547","MEAN_MOTION":"14.98316700","ELEMENT_SET_NO":"999","RCS_SIZE":"LARGE","OBJECT_NAME":"STARLINK-3077","MEAN_MOTION_DOT":"0.00031704","CLASSIFICATION_TYPE":"U","OBJECT_TYPE":"PAYLOAD","NORAD_CAT_ID":"49133","PERIAPSIS":"570.040","REV_AT_EPOCH":"357","INCLINATION":"70.0022","BSTAR":"0.00265380000000","MEAN_ANOMALY":"164.1512","TIME_SYSTEM":"UTC","TLE_LINE1":"1 49133U 21082D   22084.58334491  .00031704  00000-0  26538-2 0  9997","ECCENTRICITY":"0.00029630","DECAY_DATE":null,"TLE_LINE2":"2 49133  70.0022 338.0788 0002963 275.3547 164.1512 14.98316700  3577","PERIOD":"96.108","FILE":"3373822","CENTER_NAME":"EARTH","COUNTRY_CODE":"US","LAUNCH_DATE":"2021-09-14","EPOCH":"2022-03-25T14:00:01.000224","GP_ID":"199664054","APOAPSIS":"574.158","SITE":"AFWTR","MEAN_MOTION_DDOT":"0.0000000000000","SEMIMAJOR_AXIS":"6950.234","MEAN_ELEMENT_THEORY":"SGP4","RA_OF_ASC_NODE":"338.0788"}];
